METEOR-M2 4             
1 59051U 24039A   25124.20537292  .00000093  00000+0  61272-4 0  9995
2 59051  98.6467  85.0243 0005888 275.8775  84.1731 14.22362583 61124
GOES 19                 
1 60133U 24119A   25124.09003113 -.00000259  00000+0  00000+0 0  9996
2 60133   0.0452  86.5502 0000140 326.1083 126.7829  1.00271034  3208
