[
  {
    "OBJECT_NAME": "METEOR-M2 4",
    "OBJECT_ID": "2024-039A",
    "EPOCH": "2025-05-04T04:55:44.220288",
    "MEAN_MOTION": 14.22362583,
    "ECCENTRICITY": 0.0005888,
    "INCLINATION": 98.6467,
    "RA_OF_ASC_NODE": 85.0243,
    "ARG_OF_PERICENTER": 275.8775,
    "MEAN_ANOMALY": 84.1731,
    "EPHEMERIS_TYPE": 0,
    "CLASSIFICATION_TYPE": "U",
    "NORAD_CAT_ID": 59051,
    "ELEMENT_SET_NO": 999,
    "REV_AT_EPOCH": 6112,
    "BSTAR": 6.1272e-05,
    "MEAN_MOTION_DOT": 9.3e-07,
    "MEAN_MOTION_DDOT": 0
  },
  {
    "OBJECT_NAME": "GOES 19",
    "OBJECT_ID": "2024-119A",
    "EPOCH": "2025-05-04T02:09:38.689632",
    "MEAN_MOTION": 1.00271034,
    "ECCENTRICITY": 1.4e-05,
    "INCLINATION": 0.0452,
    "RA_OF_ASC_NODE": 86.5502,
    "ARG_OF_PERICENTER": 326.1083,
    "MEAN_ANOMALY": 126.7829,
    "EPHEMERIS_TYPE": 0,
    "CLASSIFICATION_TYPE": "U",
    "NORAD_CAT_ID": 60133,
    "ELEMENT_SET_NO": 999,
    "REV_AT_EPOCH": 320,
    "BSTAR": 0,
    "MEAN_MOTION_DOT": -2.59e-06,
    "MEAN_MOTION_DDOT": 0
  }
]